CUTE-1 (CO-55)          
1 27844U 03031E   25364.99686642  .00000687  00000+0  31716-3 0  9993
2 27844  98.6762  10.6642 0008874 319.0898  40.9614 14.24197381167737
CUBESAT XI-IV (CO-57)   
1 27848U 03031J   25364.97226345  .00000582  00000+0  27533-3 0  9991
2 27848  98.6792  10.4875 0009064 338.3361  21.7433 14.23502699167446
CUBESAT XI-V            
1 28895U 05043F   25364.93178044  .00003635  00000+0  58660-3 0  9994
2 28895  98.2730 152.3196 0014640  23.4459 336.7412 14.71979586 76996
CUTE-1.7+APD II (CO-65) 
1 32785U 08021C   25351.68477250  .00005656  00000+0  38073-3 0  9996
2 32785  97.8081 324.8433 0007829 290.5969  69.4418 15.07103756957832
CANX-2                  
1 32790U 08021H   25364.86536351  .00008386  00000+0  61115-3 0  9990
2 32790  97.8460 336.7556 0008942 249.9952 110.0310 15.03973983959495
SEEDS II (CO-66)        
1 32791U 08021J   25364.94113036  .00029541  00000+0  11501-2 0  9990
2 32791  97.7445 350.7227 0003805 144.0786 216.0708 15.25945213961571
SWISSCUBE               
1 35932U 09051B   25365.18137027  .00002802  00000+0  56816-3 0  9997
2 35932  98.4144 265.0935 0007485  24.7871 335.3687 14.62020930864603
BEESAT-1                
1 35933U 09051C   25365.24382712  .00002180  00000+0  45099-3 0  9998
2 35933  98.4075 265.1329 0006172  38.7673 321.3969 14.61332164864659
ITUPSAT1                
1 35935U 09051E   25365.22621761  .00002020  00000+0  43012-3 0  9994
2 35935  98.4165 264.4765 0008484  45.4858 314.7033 14.60082955864225
TISAT 1                 
1 36799U 10035E   25365.22980271  .00030620  00000+0  12548-2 0  9997
2 36799  98.0611 292.9896 0004737  99.4816 260.6955 15.24218208842059
AEROCUBE 4.5A           
1 38767U 12048K   25365.14553710  .00077441  00000+0  12241-2 0  9997
2 38767  64.6417 256.5214 0063166 226.2776 133.3124 15.50724153346328
STRAND-1                
1 39090U 13009E   25365.05165705  .00000703  00000+0  25143-3 0  9991
2 39090  98.3826 184.4743 0009011  20.5894 339.5655 14.37023146672911
BRITE-AUSTRIA           
1 39091U 13009F   25365.06389343  .00000464  00000+0  17287-3 0  9993
2 39091  98.3892 183.7126 0010710  27.9621 332.2139 14.36448231672911
NEE-01 PEGASO           
1 39151U 13018B   25364.86072279  .00006677  00000+0  65527-3 0  9996
2 39151  98.0964 138.8486 0012908   4.2284 355.9040 14.92486148685580
POPACS 1                
1 39268U 13055D   25364.95282800  .00373958  52121-4  76350-3 0  9990
2 39268  80.9486 187.5271 0090058 339.0153  20.7426 15.92207584646462
POPACS 2                
1 39269U 13055E   25364.97018055  .00038091  00000+0  68662-3 0  9999
2 39269  80.9943 335.8978 0443977  12.2470 348.9112 14.84319406638192
POPACS 3                
1 39270U 13055F   25364.40520189  .00015774  00000+0  38938-3 0  9991
2 39270  81.0038  51.6904 0566061 222.6522 132.9403 14.52255265614025
ZACUBE-1 (TSHEPISOSAT)  
1 39417U 13066B   25364.54616869  .00009097  00000+0  73614-3 0  9993
2 39417  97.8052 321.1188 0042389  90.5123 270.0957 14.99273357655441
WNISAT-1                
1 39423U 13066H   25364.99172421  .00001243  00000+0  23481-3 0  9992
2 39423  97.6941 161.3661 0164922  42.0749 319.2979 14.57678995642220
TRITON-1                
1 39427U 13066M   25365.29423546  .00006594  00000+0  80359-3 0  9998
2 39427  97.8319 273.9712 0093281  61.5748 299.4826 14.80612850649238
GOMX-1                  
1 39430U 13066Q   25365.29721429  .00004039  00000+0  61906-3 0  9992
2 39430  97.6588 211.2631 0128866 256.5141 102.1679 14.68696992645264
CUBEBUG-2 (LO-74)       
1 39440U 13066AA  25351.56788106  .00003439  00000+0  33426-3 0  9992
2 39440  97.8708 295.2332 0058016 269.4523  90.0047 14.92015584649893
NEE-02 KRYSAOR          
1 39441U 13066AB  25351.76100244  .00002517  00000+0  28598-3 0  9996
2 39441  97.8738 287.5718 0066127 305.4504  54.0549 14.85627194649256
FUNCUBE-1 (AO-73)       
1 39444U 13066AE  25364.85898673  .00015866  00000+0  10629-2 0  9999
2 39444  97.8072 328.3647 0040303  57.0923 303.4171 15.06304071654290
UWE-3                   
1 39446U 13066AG  25365.29228751  .00008321  00000+0  74090-3 0  9995
2 39446  97.8500 315.6586 0051266 156.9649 203.3887 14.95285439652476
BRITE-CA1 (TORONTO)     
1 40020U 14033L   25365.26269199  .00002160  00000+0  33285-3 0  9994
2 40020  97.9503 132.5898 0080441  94.5197 266.5205 14.72270295617503
DUCHIFAT-1              
1 40021U 14033M   25365.08337275  .00064092  00000+0  14870-2 0  9996
2 40021  98.0767  38.8292 0005658 331.2571  28.8362 15.42150972629679
NANOSATC-BR1            
1 40024U 14033Q   25365.03305084  .00029238  00000+0  11612-2 0  9991
2 40024  98.0887  18.1476 0005590  61.3603 298.8195 15.25277102628298
QB50P1                  
1 40025U 14033R   25364.98570987  .00016913  00000+0  91095-3 0  9991
2 40025  98.0973 359.7439 0011327  82.1379 278.1137 15.14842622627530
QB50P2                  
1 40032U 14033Y   25364.94604838  .00015281  00000+0  88789-3 0  9991
2 40032  98.0651 346.8112 0009136  39.7370 320.4527 15.12170853627217
PERSEUS-M2              
1 40037U 14033AD  25365.28942240  .00002939  00000+0  27539-3 0  9998
2 40037  97.9777 307.7049 0012916 130.3904 229.8445 14.94785707625695
PERSEUS-M1              
1 40039U 14033AF  25365.07237055  .00003527  00000+0  32878-3 0  9994
2 40039  97.9480 301.7175 0012790 130.2458 229.9882 14.94849941625513
POLYITAN-1              
1 40042U 14033AJ  25365.30584482  .00029958  00000+0  11499-2 0  9994
2 40042  98.1068  11.4356 0009070  26.2071 333.9623 15.26386523627924
TIGRISAT                
1 40043U 14033AK  25364.36538869  .00005457  00000+0  64451-3 0  9993
2 40043  97.7567 153.5906 0048894 268.4859  91.0754 14.84226405620570
AEROCUBE 6A             
1 40045U 14033AM  25364.98289975  .00014332  00000+0  12745-2 0  9994
2 40045  97.7037 169.1583 0039693 218.1556 141.6854 14.95588751621459
AEROCUBE 6B             
1 40046U 14033AN  25365.00835283  .00015743  00000+0  13537-2 0  9995
2 40046  97.7022 168.6481 0038196 208.9056 151.0051 14.96919832621570
CANX-4                  
1 40055U 14034C   25365.13304662  .00002297  00000+0  30465-3 0  9992
2 40055  98.3347 229.0574 0012525 185.9315 174.1750 14.80846210619652
CANX-5                  
1 40056U 14034D   25365.20095184  .00002437  00000+0  32270-3 0  9999
2 40056  98.3351 229.1617 0012568 185.8481 174.2585 14.80862094610473
UKUBE-1                 
1 40074U 14037F   25364.94393675  .00017390  00000+0  10687-2 0  9999
2 40074  98.4153 346.0498 0002788  52.4772 307.6708 15.10144502623132
BRITE-PL2 (HEWELIUSZ)   
1 40119U 14049B   25365.28975786  .00004142  00000+0  39587-3 0  9991
2 40119  97.8987 111.2492 0013368 309.6202  50.3837 14.93754647616377
AEROCUBE 5C             
1 40965U 15058B   25365.27752485  .00004980  00000+0  44366-3 0  9990
2 40965  64.7691  64.5164 0135629 129.0590 232.2684 14.90326824340628
AEROCUBE 7              
1 40966U 15058C   25365.26229778  .00006131  00000+0  50187-3 0  9992
2 40966  64.7638  50.1900 0125841 128.5781 232.6687 14.94165346340856
FOX-1A (AO-85)          
1 40967U 15058D   25365.26938545  .00005532  00000+0  50096-3 0  9995
2 40967  64.7766  80.3751 0132926 122.7925 238.6074 14.89825233 88549
SINOD-D 1               
1 40968U 15058E   25365.25827963  .00006504  00000+0  53549-3 0  9992
2 40968  64.7771  64.1750 0121310 120.7284 240.5846 14.94293627 91552
SNAP-3 ALICE            
1 40970U 15058G   25365.23354026  .00064029  00000+0  17782-2 0  9992
2 40970  64.7606 312.6437 0043194 111.5408 249.0338 15.35561006 90918
LMRST-SAT               
1 40971U 15058H   25365.31730554  .00005106  00000+0  46526-3 0  9996
2 40971  64.7772  76.2567 0135351 124.6292 236.7670 14.89469268 88546
SNAP-3 EDDIE            
1 40972U 15058J   25365.27173079  .00064020  00000+0  17271-2 0  9999
2 40972  64.7528 304.2979 0046012 115.6092 244.9808 15.36326709 93040
PROPCUBE 3              
1 40973U 15058K   25365.28299194  .00005629  00000+0  47539-3 0  9999
2 40973  64.7701  56.5980 0128343 126.6237 234.6761 14.92871206 89726
BISONSAT                
1 40974U 15058L   25365.26705822  .00017066  00000+0  92366-3 0  9994
2 40974  64.7624 354.7852 0084994 121.4468 239.5000 15.11671115 90196
SNAP-3 JIMI             
1 40975U 15058M   25365.25312197  .00008496  00000+0  60951-3 0  9995
2 40975  64.7670  30.2457 0110703 124.5323 236.6305 15.00053436 89010
PROPCUBE 1 (FLORA)      
1 40976U 15058N   25365.25486617  .00005690  00000+0  53570-3 0  9997
2 40976  64.7757  95.2871 0134676 126.8261 234.5293 14.88148556 91265
SINOD-D 3               
1 40977U 15058P   25365.28096819  .00006985  00000+0  59916-3 0  9990
2 40977  64.7740  79.5558 0123141 125.3618 235.9077 14.92513419 89687
HORYU-4                 
1 41340U 16012D   25365.27524209  .00070291  00000+0  10948-2 0  9996
2 41340  30.9918 182.5472 0006193  54.8188 305.3042 15.52526751544432
RAVAN                   
1 41849U 16067B   25365.17453801  .00048412  00000+0  11868-2 0  9990
2 41849  98.0152 232.0630 0005417 231.0387 129.0375 15.40563099501713
CELTEE 1                
1 41850U 16067C   25365.06554244  .00012114  00000+0  60726-3 0  9991
2 41850  98.0870 215.1634 0002334  86.0502 274.0997 15.17517571500369
OPTICUBE 04             
1 41851U 16067D   25365.07514316  .00005021  00000+0  32407-3 0  9993
2 41851  98.0823 203.4996 0015316 331.1569  28.8810 15.08679411499818
AEROCUBE 8D             
1 41852U 16067E   25365.16397841  .00013790  00000+0  61707-3 0  9993
2 41852  98.0892 217.6461 0004112  16.3791 343.7575 15.21415348500496
AEROCUBE 8C             
1 41853U 16067F   25365.14818564  .00014728  00000+0  65489-3 0  9995
2 41853  98.0753 215.0867 0004425 290.0388  70.0369 15.21614160500488
CORVUS BC2              
1 42846U 17042X   25364.99111199  .00007545  00000+0  53625-3 0  9992
2 42846  97.3860 168.2215 0012792 333.8274  26.2304 15.04892657461752
